*******************************************************************************
JPL/HORIZONS                 1163 Saga (1930 BA)           2023-Sep-04 11:10:34
Rec #:    1163 (+COV) Soln.date: 2023-Aug-21_16:43:11  # obs: 10423 (1930-2023)
 
IAU76/J2000 helio. ecliptic osc. elements (au, days, deg., period=Julian yrs):
 
  EPOCH=  2457690.5 ! 2016-Oct-29.00 (TDB)         Residual RMS= .25026
   EC= .04656119469937129  QR= 3.067740121098493   TP= 2458719.9810660854
   OM= 127.8007813846775   W=  197.8181623101455   IN= 9.023961666823341
   A= 3.217553244155197    MA= 184.1939469064527   ADIST= 3.367366367211901
   PER= 5.77161            N= .170771526           ANGMOM= .030822867
   DAN= 3.3595             DDN= 3.0743             L= 325.4121131
   B= -2.7509612           MOID= 2.05536008        TP= 2019-Aug-24.4810660854
 
Asteroid physical parameters (km, seconds, rotational period in hours):
   GM= n.a.                RAD= 16.2145            ROTPER= 9.365
   H= 10.71                G= .150                 B-V= n.a.
                           ALBEDO= .147            STYP= n.a.

ASTEROID comments: 
1: soln ref.= JPL#63, OCC=0
2: source=ORB
*******************************************************************************


*******************************************************************************
Ephemeris / API_USER Mon Sep  4 11:10:34 2023 Pasadena, USA      / Horizons
*******************************************************************************
Target body name: 1163 Saga (1930 BA)             {source: JPL#63}
Center body name: Solar System Barycenter (0)     {source: DE441}
Center-site name: BODY CENTER
*******************************************************************************
Start time      : A.D. 2023-Aug-12 00:00:00.0000 TDB
Stop  time      : A.D. 2023-Aug-13 00:00:00.0000 TDB
Step-size       : 2880 minutes
*******************************************************************************
Center geodetic : 0.0, 0.0, 0.0                   {E-lon(deg),Lat(deg),Alt(km)}
Center cylindric: 0.0, 0.0, 0.0                   {E-lon(deg),Dxy(km),Dz(km)}
Center radii    : (undefined)
Small perturbers: Yes                             {source: SB441-N16}
Output units    : KM-S
Calendar mode   : Mixed Julian/Gregorian
Output type     : GEOMETRIC cartesian states
Output format   : 2 (position and velocity)
Reference frame : Ecliptic of J2000.0
*******************************************************************************
Initial IAU76/J2000 heliocentric ecliptic osculating elements (au, days, deg.):
  EPOCH=  2457690.5 ! 2016-Oct-29.00 (TDB)         Residual RMS= .25026        
   EC= .04656119469937129  QR= 3.067740121098493   TP= 2458719.9810660854      
   OM= 127.8007813846775   W=  197.8181623101455   IN= 9.023961666823341       
  Equivalent ICRF heliocentric cartesian coordinates (au, au/d):
   X=-2.887293082709644E+00  Y= 1.501626870872468E+00  Z= 8.633335382631573E-01
  VX=-4.545108725052356E-03 VY=-7.717617214055629E-03 VZ=-1.893227718444479E-03
Asteroid physical parameters (km, seconds, rotational period in hours):        
   GM= n.a.                RAD= 16.2145            ROTPER= 9.365               
   H= 10.71                G= .150                 B-V= n.a.                   
                           ALBEDO= .147            STYP= n.a.                  
*******************************************************************************
JDTDB
   X     Y     Z
   VX    VY    VZ
*******************************************************************************
$$SOE
2460168.500000000 = A.D. 2023-Aug-12 00:00:00.0000 TDB 
 X =-4.292357227755827E+08 Y =-2.293078648317287E+08 Z = 7.607433972037630E+07
 VX= 8.257039283094741E+00 VY=-1.403395447376529E+01 VZ= 3.158731395333731E-01
$$EOE
*******************************************************************************
 
TIME

  Barycentric Dynamical Time ("TDB" or T_eph) output was requested. This
continuous coordinate time is equivalent to the relativistic proper time
of a clock at rest in a reference frame co-moving with the solar system
barycenter but outside the system's gravity well. It is the independent
variable in the solar system relativistic equations of motion.

  TDB runs at a uniform rate of one SI second per second and is independent
of irregularities in Earth's rotation.
 
CALENDAR SYSTEM

  Mixed calendar mode was active such that calendar dates after AD 1582-Oct-15
(if any) are in the modern Gregorian system. Dates prior to 1582-Oct-5 (if any)
are in the Julian calendar system, which is automatically extended for dates
prior to its adoption on 45-Jan-1 BC.  The Julian calendar is useful for
matching historical dates. The Gregorian calendar more accurately corresponds
to the Earth's orbital motion and seasons. A "Gregorian-only" calendar mode is
available if such physical events are the primary interest.

REFERENCE FRAME AND COORDINATES

  Ecliptic at the standard reference epoch

    Reference epoch: J2000.0
    X-Y plane: adopted Earth orbital plane at the reference epoch
               Note: IAU76 obliquity of 84381.448 arcseconds wrt ICRF X-Y plane
    X-axis   : ICRF
    Z-axis   : perpendicular to the X-Y plane in the directional (+ or -) sense
               of Earth's north pole at the reference epoch.

  Symbol meaning:

    JDTDB    Julian Day Number, Barycentric Dynamical Time
      X      X-component of position vector (km)
      Y      Y-component of position vector (km)
      Z      Z-component of position vector (km)
      VX     X-component of velocity vector (km/sec)                           
      VY     Y-component of velocity vector (km/sec)                           
      VZ     Z-component of velocity vector (km/sec)                           

ABERRATIONS AND CORRECTIONS

 Geometric state vectors have NO corrections or aberrations applied.

Computations by ...

    Solar System Dynamics Group, Horizons On-Line Ephemeris System
    4800 Oak Grove Drive, Jet Propulsion Laboratory
    Pasadena, CA  91109   USA

    General site: https://ssd.jpl.nasa.gov/
    Mailing list: https://ssd.jpl.nasa.gov/email_list.html
    System news : https://ssd.jpl.nasa.gov/horizons/news.html
    User Guide  : https://ssd.jpl.nasa.gov/horizons/manual.html
    Connect     : browser        https://ssd.jpl.nasa.gov/horizons/app.html#/x
                  API            https://ssd-api.jpl.nasa.gov/doc/horizons.html
                  command-line   telnet ssd.jpl.nasa.gov 6775
                  e-mail/batch   https://ssd.jpl.nasa.gov/ftp/ssd/hrzn_batch.txt
                  scripts        https://ssd.jpl.nasa.gov/ftp/ssd/SCRIPTS
    Author      : Jon.D.Giorgini@jpl.nasa.gov
*******************************************************************************
